{"type":"FeatureCollection","features":[{"type":"Feature","properties":{},"geometry":{"type":"Polygon","coordinates":[[[-46.6886705160141,-23.59093991347296],[-46.68902993202209,-23.5919673727383],[-46.689046025276184,-23.59240981683334],[-46.6890674829483,-23.593019404031256],[-46.68894946575164,-23.593063648153098],[-46.68872952461243,-23.592881755556718],[-46.68834865093231,-23.592768687058904],[-46.68684124946594,-23.592508137540708],[-46.68443262577057,-23.591814974982302],[-46.684550642967224,-23.59147576643825],[-46.68541967868805,-23.59169698950123],[-46.6862028837204,-23.59168224130864],[-46.6886705160141,-23.59093991347296]]]}}]}